{"type":"FeatureCollection","features":[{"type":"Feature","properties":{"name":"Tokyo","population_proxy_rank":10,"exposure_screen_score":46.7},"geometry":{"type":"Point","coordinates":[139.6917,35.6895]}},{"type":"Feature","properties":{"name":"Osaka","population_proxy_rank":8,"exposure_screen_score":77.0},"geometry":{"type":"Point","coordinates":[135.5023,34.6937]}},{"type":"Feature","properties":{"name":"Nagoya","population_proxy_rank":7,"exposure_screen_score":42.3},"geometry":{"type":"Point","coordinates":[136.9066,35.1815]}},{"type":"Feature","properties":{"name":"Sendai","population_proxy_rank":5,"exposure_screen_score":47.4},"geometry":{"type":"Point","coordinates":[140.8694,38.2682]}},{"type":"Feature","properties":{"name":"Kumamoto","population_proxy_rank":3,"exposure_screen_score":71.5},"geometry":{"type":"Point","coordinates":[130.7079,32.8031]}},{"type":"Feature","properties":{"name":"Kanazawa","population_proxy_rank":4,"exposure_screen_score":47.3},"geometry":{"type":"Point","coordinates":[136.6562,36.5613]}}]}