{"type":"FeatureCollection","features":[{"type":"Feature","properties":{"name":"2011 Tohoku","magnitude":9.0},"geometry":{"type":"Point","coordinates":[142.37,38.3]}},{"type":"Feature","properties":{"name":"2016 Kumamoto","magnitude":7.0},"geometry":{"type":"Point","coordinates":[130.72,32.79]}},{"type":"Feature","properties":{"name":"2024 Noto","magnitude":7.5},"geometry":{"type":"Point","coordinates":[137.29,37.5]}},{"type":"Feature","properties":{"name":"2004 Niigata","magnitude":6.6},"geometry":{"type":"Point","coordinates":[138.93,37.29]}},{"type":"Feature","properties":{"name":"1995 Kobe","magnitude":6.9},"geometry":{"type":"Point","coordinates":[135.03,34.6]}}]}